COSMOS 2058             
1 20465U 90010A   26173.62824547  .00002763  00000+0  15896-3 0  9993
2 20465  82.4691 303.9893 0008751 338.8057  21.2809 15.12047355958095
SL-14 R/B               
1 20466U 90010B   26173.42841574  .00000285  00000+0  31641-4 0  9995
2 20466  82.5015 169.0224 0018676 318.2428  41.7361 14.83648899944011
SL-14 R/B               
1 20511U 90018B   26173.61457445  .00000299  00000+0  34483-4 0  9997
2 20511  82.5213 125.0349 0017681 105.2754 255.0417 14.82219028938127
HST                     
1 20580U 90037B   26173.68477009  .00005473  00000+0  17108-3 0  9992
2 20580  28.4724  43.0006 0001525 203.6425 156.4101 15.30802244789418
SL-16 R/B               
1 20625U 90046B   26173.17931437 -.00000089  00000+0 -21247-4 0  9996
2 20625  71.0003  78.4641 0012960 154.0537 206.1238 14.15027270863177
COSMOS 2084             
1 20663U 90055A   26173.70493478  .00001466  00000+0  11349-3 0  9994
2 20663  62.7899 337.2572 0005804 288.3327  71.7142 15.06134522952130
SL-6 R/B(2)             
1 20666U 90055D   26173.70070467  .00000949  00000+0  81922-4 0  9996
2 20666  62.7818 256.6147 0041569   5.9208 354.2374 15.04016834953988
SL-8 R/B                
1 20775U 90078B   26173.69268482  .00023620  00000+0  66666-3 0  9994
2 20775  82.9015 156.6699 0349571  19.9141 341.5334 14.92550671824944
SL-8 R/B                
1 21088U 91006B   26173.53348681  .00000050  00000+0  34786-4 0  9998
2 21088  82.9426  92.0568 0023829 100.4094  72.1422 13.77506298778507
OKEAN-3                 
1 21397U 91039A   26173.72227558  .00002052  00000+0  14111-3 0  9990
2 21397  82.5162 235.0145 0013487 337.4444  22.6188 15.05348148880833
COSMOS 2151             
1 21422U 91042A   26173.79495171  .00001198  00000+0  92911-4 0  9993
2 21422  82.4963 342.2683 0013661  67.2136 293.0530 15.00450685878958
SL-14 R/B               
1 21423U 91042B   26173.35215285  .00000276  00000+0  31944-4 0  9997
2 21423  82.4931 122.0522 0015434 256.1268 103.8229 14.81905059868573
ERS-1                   
1 21574U 91050A   26173.65590680  .00000152  00000+0  63424-4 0  9992
2 21574  98.7795 194.4877 0030753 250.0924 109.6948 14.39519572830831
ARIANE 40 R/B           
1 21610U 91050F   26173.52708952  .00000173  00000+0  64015-4 0  9992
2 21610  98.1872 221.7360 0004410 109.8120 250.3547 14.42959529834111
INTERCOSMOS 25          
1 21819U 91086A   26173.47670383  .00000875  00000+0  17417-3 0  9994
2 21819  82.6048 246.6090 1483959 250.9718  92.5212 12.12203672509381
SL-8 R/B                
1 21876U 92008B   26173.45469508  .00000143  00000+0  13165-3 0  9999
2 21876  82.9259 189.8711 0034166 199.6996 323.1128 13.75978315723826
SL-8 R/B                
1 21938U 92020B   26173.72094038  .00000055  00000+0  41348-4 0  9991
2 21938  82.9304  75.7473 0029343   7.4554  20.0947 13.75549432715570
USA 81                  
1 21949U 92023A   26173.44421021  .00000116  00000+0  35531-4 0  9996
2 21949  85.0073  70.9734 0002724  80.2620 279.8880 14.32399376109787
COSMOS 2219             
1 22219U 92076A   26173.42519671  .00000347  00000+0  20642-3 0  9994
2 22219  71.0587 159.1213 0016851  35.4254 324.7984 14.14102675733182
SL-16 R/B               
1 22220U 92076B   26173.66793323  .00000150  00000+0  98742-4 0  9999
2 22220  71.0011 327.2350 0014846 291.4729  79.2329 14.16874945736703
COSMOS 2221             
1 22236U 92080A   26173.42116863  .00001098  00000+0  94134-4 0  9996
2 22236  82.5029 178.7499 0013754 193.7784 166.3065 14.96544031796452
SL-16 R/B               
1 22285U 92093B   26173.61332962 -.00000037  00000+0  52793-5 0  9994
2 22285  71.0199 144.0000 0003681 177.7866 182.3274 14.15459768728001
COSMOS 2228             
1 22286U 92094A   26173.83380996  .00001574  00000+0  13219-3 0  9994
2 22286  82.5177 136.6341 0016403 312.0539  47.9287 14.97603381791795
SL-16 R/B               
1 22566U 93016B   26173.45261203  .00000009  00000+0  29208-4 0  9995
2 22566  71.0086 355.1472 0009862 176.1708 183.9493 14.15315963716994
COSMOS 2242             
1 22626U 93024A   26173.72898902  .00001271  00000+0  10822-3 0  9996
2 22626  82.5179 166.2407 0014861 316.5358  43.4692 14.96916837796104
SL-16 R/B               
1 22803U 93059B   26173.64227557 -.00000167  00000+0 -58842-4 0  9994
2 22803  70.9887 149.7998 0015426  44.8298 315.4069 14.17247272694404
ARIANE 40 R/B           
1 22830U 93061H   26173.44250550  .00000105  00000+0  54339-4 0  9991
2 22830  98.4816 240.1904 0010126 340.4205  19.6590 14.32909617709100
COSMOS 2278             
1 23087U 94023A   26173.69255845 -.00000070  00000+0 -12033-4 0  9992
2 23087  71.0552 315.4059 0010556 237.1063 122.9044 14.14398762659656
SL-16 R/B               
1 23088U 94023B   26173.47979993  .00000019  00000+0  34440-4 0  9993
2 23088  70.9989 210.8166 0002376 182.9958 177.1151 14.15027373660917
SL-16 R/B               
1 23343U 94074B   26173.34544672  .00000280  00000+0  44055-4 0  9994
2 23343  97.6988 199.8516 0005337 232.2319 138.3203 14.79505749702722
