OBJECT_NAME,OBJECT_ID,EPOCH,MEAN_MOTION,ECCENTRICITY,INCLINATION,RA_OF_ASC_NODE,ARG_OF_PERICENTER,MEAN_ANOMALY,EPHEMERIS_TYPE,CLASSIFICATION_TYPE,NORAD_CAT_ID,ELEMENT_SET_NO,REV_AT_EPOCH,BSTAR,MEAN_MOTION_DOT,MEAN_MOTION_DDOT
COSMOS 2058,1990-010A,2026-06-22T15:04:40.408608,15.12047355,.00087519,82.4691,303.9893,338.8057,21.2809,0,U,20465,999,95809,.15895704E-3,.2763E-4,0
SL-14 R/B,1990-010B,2026-06-22T10:16:55.119936,14.83648899,.00186766,82.5015,169.0224,318.2428,41.7361,0,U,20466,999,94401,.31641115E-4,.285E-5,0
SL-14 R/B,1990-018B,2026-06-22T14:44:59.232480,14.82219028,.00176814,82.5213,125.0349,105.2754,255.0417,0,U,20511,999,93812,.34482609E-4,.299E-5,0
HST,1990-037B,2026-06-22T16:26:04.135776,15.30802244,.00015255,28.4724,43.0006,203.6425,156.4101,0,U,20580,999,78941,.17107506E-3,.5473E-4,0
SL-16 R/B,1990-046B,2026-06-22T04:18:12.761568,14.15027270,.00129603,71.0003,78.4641,154.0537,206.1238,0,U,20625,999,86317,-.21247004E-4,-.89E-6,0
COSMOS 2084,1990-055A,2026-06-22T16:55:06.364992,15.06134522,.00058048,62.7899,337.2572,288.3327,71.7142,0,U,20663,999,95213,.11349206E-3,.1466E-4,0
SL-6 R/B(2),1990-055D,2026-06-22T16:49:00.883488,15.04016834,.00415695,62.7818,256.6147,5.9208,354.2374,0,U,20666,999,95398,.8192165E-4,.949E-5,0
SL-8 R/B,1990-078B,2026-06-22T16:37:27.968448,14.92550671,.03495718,82.9015,156.6699,19.9141,341.5334,0,U,20775,999,82494,.6666641E-3,.2362E-3,0
SL-8 R/B,1991-006B,2026-06-22T12:48:13.260384,13.77506298,.00238291,82.9426,92.0568,100.4094,72.1422,0,U,21088,999,77850,.34785651E-4,.5E-6,0
OKEAN-3,1991-039A,2026-06-22T17:20:04.610112,15.05348148,.0013487,82.5162,235.0145,337.4444,22.6188,0,U,21397,999,88083,.14111353E-3,.2052E-4,0
COSMOS 2151,1991-042A,2026-06-22T19:04:43.827744,15.00450685,.00136615,82.4963,342.2683,67.2136,293.0530,0,U,21422,999,87895,.92910675E-4,.1198E-4,0
SL-14 R/B,1991-042B,2026-06-22T08:27:06.006240,14.81905059,.00154342,82.4931,122.0522,256.1268,103.8229,0,U,21423,999,86857,.31943931E-4,.276E-5,0
ERS-1,1991-050A,2026-06-22T15:44:30.347520,14.39519572,.00307535,98.7795,194.4877,250.0924,109.6948,0,U,21574,999,83083,.63424091E-4,.152E-5,0
ARIANE 40 R/B,1991-050F,2026-06-22T12:39:00.534528,14.42959529,.00044102,98.1872,221.7360,109.8120,250.3547,0,U,21610,999,83411,.64015088E-4,.173E-5,0
INTERCOSMOS 25,1991-086A,2026-06-22T11:26:27.210912,12.12203672,.14839592,82.6048,246.6090,250.9718,92.5212,0,U,21819,999,50938,.17416835E-3,.875E-5,0
SL-8 R/B,1992-008B,2026-06-22T10:54:45.654912,13.75978315,.00341662,82.9259,189.8711,199.6996,323.1128,0,U,21876,999,72382,.13165427E-3,.143E-5,0
SL-8 R/B,1992-020B,2026-06-22T17:18:09.248832,13.75549432,.00293436,82.9304,75.7473,7.4554,20.0947,0,U,21938,999,71557,.41348441E-4,.55E-6,0
USA 81,1992-023A,2026-06-22T10:39:39.762144,14.32399376,.00027244,85.0073,70.9734,80.2620,279.8880,0,U,21949,999,10978,.35530829E-4,.116E-5,0
COSMOS 2219,1992-076A,2026-06-22T10:12:16.995744,14.14102675,.00168514,71.0587,159.1213,35.4254,324.7984,0,U,22219,999,73318,.20642402E-3,.347E-5,0
SL-16 R/B,1992-076B,2026-06-22T16:01:49.431072,14.16874945,.00148465,71.0011,327.2350,291.4729,79.2329,0,U,22220,999,73670,.98742417E-4,.15E-5,0
COSMOS 2221,1992-080A,2026-06-22T10:06:28.969632,14.96544031,.00137546,82.5029,178.7499,193.7784,166.3065,0,U,22236,999,79645,.94133722E-4,.1098E-4,0
SL-16 R/B,1992-093B,2026-06-22T14:43:11.679168,14.15459768,.00036816,71.0199,144.0000,177.7866,182.3274,0,U,22285,999,72800,.5279301E-5,-.37E-6,0
COSMOS 2228,1992-094A,2026-06-22T20:00:41.180544,14.97603381,.00164034,82.5177,136.6341,312.0539,47.9287,0,U,22286,999,79179,.13218849E-3,.1574E-4,0
SL-16 R/B,1993-016B,2026-06-22T10:51:45.679392,14.15315963,.00098622,71.0086,355.1472,176.1708,183.9493,0,U,22566,999,71699,.29208308E-4,.9E-7,0
COSMOS 2242,1993-024A,2026-06-22T17:29:44.651328,14.96916837,.00148616,82.5179,166.2407,316.5358,43.4692,0,U,22626,999,79610,.10822077E-3,.1271E-4,0
SL-16 R/B,1993-059B,2026-06-22T15:24:52.609248,14.17247272,.00154266,70.9887,149.7998,44.8298,315.4069,0,U,22803,999,69440,-.58842157E-4,-.167E-5,0
ARIANE 40 R/B,1993-061H,2026-06-22T10:37:12.475200,14.32909617,.00101268,98.4816,240.1904,340.4205,19.6590,0,U,22830,999,70910,.5433851E-4,.105E-5,0
COSMOS 2278,1994-023A,2026-06-22T16:37:17.050080,14.14398762,.00105562,71.0552,315.4059,237.1063,122.9044,0,U,23087,999,65965,-.12033321E-4,-.7E-6,0
SL-16 R/B,1994-023B,2026-06-22T11:30:54.713952,14.15027373,.00023765,70.9989,210.8166,182.9958,177.1151,0,U,23088,999,66091,.34440192E-4,.19E-6,0
SL-16 R/B,1994-074B,2026-06-22T08:17:26.596608,14.79505749,.00053371,97.6988,199.8516,232.2319,138.3203,0,U,23343,999,70272,.44055185E-4,.28E-5,0
